[{"OBJECT_NAME":"PACE","OBJECT_ID":"2024-025A","EPOCH":"2026-03-09T17:12:21.766176","MEAN_MOTION":14.65475036,"ECCENTRICITY":0.00016743,"INCLINATION":98.09,"RA_OF_ASC_NODE":1.5412,"ARG_OF_PERICENTER":171.2406,"MEAN_ANOMALY":188.8827,"EPHEMERIS_TYPE":0,"CLASSIFICATION_TYPE":"U","NORAD_CAT_ID":58928,"ELEMENT_SET_NO":999,"REV_AT_EPOCH":11136,"BSTAR":0.00014666329,"MEAN_MOTION_DOT":7.47e-6,"MEAN_MOTION_DDOT":0},{"OBJECT_NAME":"SL-8 R\/B","OBJECT_ID":"1970-083B","EPOCH":"2026-03-09T12:18:58.680288","MEAN_MOTION":14.63595594,"ECCENTRICITY":0.00089746,"INCLINATION":74.0002,"RA_OF_ASC_NODE":106.443,"ARG_OF_PERICENTER":46.0232,"MEAN_ANOMALY":314.1674,"EPHEMERIS_TYPE":0,"CLASSIFICATION_TYPE":"U","NORAD_CAT_ID":4579,"ELEMENT_SET_NO":999,"REV_AT_EPOCH":94022,"BSTAR":0.00012629262,"MEAN_MOTION_DOT":6.25e-6,"MEAN_MOTION_DDOT":0}]
